com_name,province,city,credit_no,legal_person,com_type,com_cate,data_eastablish,capital,num_emp,locate,email,bussiness_scope,com_url,phone,more_phone
东莞农村商业银行股份有限公司,广东省,东莞市,914419007829859746,王耀球,其他股份有限公司(非上市),货币金融服务,2005-11-30,-,5495,广东省东莞市东城区鸿福东路2号,暂无信息,吸收本外币公众存款；发放本外币短期、中期和长期贷款；办理国内外结算；办理票据承兑与贴现；代理发行、代理兑付、承销政府债券；买卖政府债券、金融债券；从事本外币同业拆借；从事银行卡（含信用卡）业务；代理收付款项及代理保险业务；提供保管箱服务；外汇汇款、外币兑换；结汇、售汇业务；代理远期结售汇业务；外汇资信调查、咨询和见证业务；证券投资基金销售业务；实物黄金业务及贵金属交易买卖业务；经中国银行业监督管理委员会批准的其他业务。(依法须经批准的项目，经相关部门批准后方可开展经营活动)〓,www.drcbank.com,0769-22866662,"[""0769-22866662""]"
广州供电局有限公司,广东省,广州市,91440101589527752M,廖建平,有限责任公司(法人独资),电力、热力生产和供应业,2012-02-06,-,9027,广州市天河区天河南二路2号,暂无信息,电力供应;承装（修、试）电力设施;送变电工程专业承包;工程和技术研究和试验发展;能源技术研究、技术开发服务;电子、通信与自动控制技术研究、开发;能源技术咨询服务;工程和技术基础科学研究服务;电力电子技术服务;信息技术咨询服务;电气防火技术检测服务;工程技术咨询服务;职业技能培训（不包括需要取得许可审批方可经营的职业技能培训项目）;电气设备零售;电力输送设施安装工程服务;建筑物电力系统安装;电工器材零售;企业自有资金投资;投资管理服务;,www.gzsgdj.cn,87122998,"[""87122998"",""87122121""]"
广东志高空调有限公司,广东省,佛山市,914406052318367964,李兴浩,有限责任公司(外国法人独资),电气机械和器材制造业,1997-06-16,99614万人民币,6372,佛山市南海区里水镇胜利工业区,sale@china-chigo.com,制造、加工、销售：家用空调、冷柜、冰箱、电磁炉、微波炉、电炒锅、电压力锅、电饭煲（锅）、洗衣机、电风扇（国内销售）、烟机、消毒柜、太阳能热水器、碟机、豆浆机、榨汁机、多功能搅拌机、电热水壶、电暖器、暖风机、浴霸、电热水器、饮水机、电开水瓶、电开水桶、净水器等家用电器，音像设备、商用空调、燃气热水器、燃气灶具、电子计算机、除湿机、冷冻冷藏设备、制冰机、风幕机、空气源热泵热水器、太阳能复合动力空调机组、五金及塑料模具、塑胶制品、自动售货机、电缆切割器及上述产品的零配件，上述产品的售后服务。自有家用电器的出租、有偿使用服务。研究开发中心（家用空调、商用空调、太阳能复合动力空调机组、空气源热泵热水器的研发）（以上项目不涉及外商投资准入特别管理措施）。,www.china-chigo.com,0757-85660491,"[""0757-85660491"",""85660491""]"
中铁隧道局集团有限公司,广东省,广州市,91410300171075680N,于保林,有限责任公司(法人独资),土木工程建筑业,1984-10-20,-,5442,广州市南沙区明珠湾起步区工业四路西侧自编2号（仅限办公用途）（自主申报）（MZ）,zhwb32971@qq.com,房屋建筑工程施工;铁路工程建筑;公路工程建筑;市政公用工程施工;水利和内河港口工程建筑;港口及航运设施工程建筑;工矿工程建筑;铁路、道路、隧道和桥梁工程建筑;工程总承包服务;工程施工总承包;工程项目管理服务;预应力工程施工（含制梁工程）;城市轨道桥梁工程服务;城市地铁隧道工程服务;综合管廊的建设、运营、维护、管理（不含许可经营项目）;园林绿化工程服务;铁道工程设计服务;公路工程及相关设计服务;工程和技术研究和试验发展;技术服务(不含许可审批项目);盾构机械技术服务;计量认证（具体范围见计量认证证书及其附表）;货物进出口（专营专控商品除外）;技术进出口;电气机械检测服务;通用设备修理;工程监理服务;摄影服务;会议及展览服务;施工现场质量检测;无损检测;实验室检测（涉及许可项目的需取得许可后方可从事经营）;其他工程设计服务;机械设备租赁;广告业;工矿工程机械修理;盾构机械检修;通用机械设备销售;通风设备销售;信息技术咨询服务;建筑工程、土木工程技术咨询服务;企业管理咨询服务;机械技术咨询、交流服务;工程技术咨询服务;教育咨询服务;金属表面处理及热处理加工;锻件及粉末冶金制品制造;锚及零件制造;五金配件制造、加工;爆破作业;向境外派遣各类劳务人员（不含海员）;对外劳务合作;建筑劳务派遣,www.crtg.com,020-32268617,"[""020-32268617"",""020-32268700"",""0379-62632971"",""62632971""]"
广东中烟工业有限责任公司,广东省,广州市,91440000190329746K,白云峰,有限责任公司(国有控股),烟草制品业,1990-11-26,1435723.4万人民币,5054,广东省广州市天河区林和西横路186号8-16楼,暂无信息,卷烟、雪茄烟生产、销售：烟叶、复烤烟叶购进；烟草专用机械购进；卷烟纸、滤嘴棒、烟用丝束购进。(依法须经批准的项目，经相关部门批准后方可开展经营活动)〓,gdgy.tobacco.com.cn,020-87013331,"[""020-87013331"",""87013283""]"
广州尚智思德教育科技有限公司,广东省,-,91440101MA5AA73U3L,刘通博,有限责任公司(法人独资),研究和试验发展,2017-09-28,60000万人民币,6512,广州中新广州知识城九佛建设路333号自编612室,legal-department@sunlands.com,软件开发;教育咨询服务;信息系统集成服务;计算机技术开发、技术服务;教学设备的研究开发;企业管理咨询服务;网络技术的研究、开发;信息技术咨询服务;场地租赁（不含仓储）;办公设备耗材零售;商品零售贸易（许可审批类商品除外）;办公设备耗材批发;办公设备批发;呼叫中心,-,38889797,"[""38889797""]"
广梅汕铁路有限责任公司,广东省,广州市,91440000190333366B,武勇,有限责任公司(国有控股),铁路运输业,1998-09-22,670869.874万人民币,5832,广州市天河区天河路236号2205房,暂无信息,铁路客货运输服务，铁路设施技术服务，仓储、装卸服务，铁路设备租赁，机械设备维修、加工及维护，铁路专用仪器设备检测、维修、租赁、安装，铁路工程施工管理服务，铁路内外建设工程的勘察设计、施工和维修，科技开发及技术服务。,-,202-61320788,"[""202-61320788"",""020-61320108"",""020-61320788"",""61320788""]"
信利光电股份有限公司,广东省,汕尾市,91441500675216889G,李建华,股份有限公司(台港澳与境内合资、未上市),仪器仪表制造业,2008-06-16,34000万人民币,9663,汕尾市区工业大道信利工业城一区第15栋,zhongjz.wwb@truly.com.cn,研究与开发、生产和销售触摸屏、触控器件及集成触控模组、微型摄像模组、光电子器件及其他电子器件、光学器件、系统产品、新型电子元器件等产品及其关键部件和材料，并提供相关的技术开发和技术咨询服务。,www.trulyopto.com,0660-3823333,"[""0660-3823333""]"
深圳软通动力信息技术有限公司,广东省,深圳市,91440300MA5DJWNF8W,孙宏亮,有限责任公司（自然人投资或控股的法人独资）,其他服务业,2016-08-25,-,8288,深圳市罗湖区东晓街道布吉路1028号中设广场A栋2-24层,hfzhang@isoftstone.com,一般经营项目是：计算机软、硬件的技术开发、技术咨询及销售；计算机信息系统集成；展览展示服务；安全技术防范系统工程设计、施工；国内贸易，从事货物及技术的进出口业务（法律、行政法规、国务院决定禁止的项目除外，限制的项目须取得许可后方可经营）。（企业经营涉及前置性行政许可的，须取得前置性行政许可文件后方可经营），许可经营项目是：二类医疗器械的销售；劳务派遣。,-,0755-26719999,"[""0755-26719999""]"
三赢科技（深圳）有限公司,广东省,深圳市,914403007261719171,周贤颖,有限责任公司(外国法人独资),计算机、通信和其他电子设备制造业,2001-02-26,4300万美元,5970,深圳市龙华新区龙华油松第十工业区东环二路二号,bo.b.wang@mail.foxconn.com,软件的设计开发，通信网络的设计，软件、硬件的系统整合及相关技术服务，从事相关科技咨询。生产经营光电器件、敏感元器件、半导体、光电子专用材料、新型显示器件及其上述产品的零配件。开发、生产数字照相机及关键件。从事上述产品的同类商品的进出口，批发业务及相关配套服务。智能穿戴式电子产品、智能家用电子用品、微投影仪的批发。从事非配额许可证管理、非专营商品的收购出口业务（以上商品进出口不涉及国营贸易、进出口配额许可证、出口配额招标、出口许可证等专项管理的商品，涉及其他专项规定管理的商品按国家有关规定办理）。,-,0755-28129588,"[""0755-28129588""]"
广州公交集团电车有限公司,广东省,广州市,914401011904268104,郑敏珊,有限责任公司(法人独资),道路运输业,1982-08-17,23500.609万人民币,5016,广州市荔湾区中山八路64号,bgs@gadc.com.cn,公共电汽车客运;汽车修理与维护;汽车驾驶员培训;广告业;电力输送设施安装工程服务;电力工程设计服务;汽车零配件批发;汽车零配件零售;充电桩设施安装、管理;为电动汽车提供电池充电服务;向游客提供旅游、交通、住宿、餐饮等代理服务（不涉及旅行社业务）;,www.gzdc.com.cn,81814451,"[""81814451""]"
广东恒健制药有限公司,广东省,江门市,91440704193959639D,胡锡昌,有限责任公司(自然人投资或控股),批发业,1994-02-23,1698万人民币,5749,广东省江门市龙溪路117号,gdhengjain@163.com,生产、加工、销售：中西制剂药品、化学原料药、中药材及中药饮片、药用辅料、医疗器械、化妆品、消毒剂、普通口罩、洗涤剂及其他日用化学品、化工产品；销售：日用百货。（以上项目凭有效的《药品生产许可证》、《化妆品生产企业卫生许可证》、《医疗器械生产企业许可证》、《全国工业产品生产许可证》、《消毒产品生产企业卫生许可证》核准范围及方式经营）。(依法须经批准的项目，经相关部门批准后方可开展经营活动)〓,www.hengjian.cn,0750-3869322,"[""0750-3869322""]"
广州市百果园网络科技有限公司,广东省,广州市,91440113327573230P,胡建强,有限责任公司(自然人投资或控股),研究和试验发展,2014-12-17,1000万人民币,5893,广州市番禺区市桥街兴泰路278号基盛商业中心4、5、6、13、14、15、16层,xiaobo@bigo.sg,计算机技术开发、技术服务;软件测试服务;软件开发;软件服务;软件批发;人力资源外包;业务流程外包;电子、通信与自动控制技术研究、开发;网络技术的研究、开发;美术品批发;日用器皿及日用杂货批发;玉石饰品批发;水晶首饰批发;珍珠饰品批发;软件零售;科技信息咨询服务;其他人造首饰、饰品批发;钟表批发;化妆品及卫生用品批发;游戏软件设计制作;科技中介服务;信息电子技术服务;电力电子技术服务;信息系统集成服务;帽批发;鞋批发;箱、包批发;皮革及皮革制品批发;眼镜批发;工艺品批发;铂金制品批发;黄金制品批发;白银制品批发;宝石饰品批发;信息技术咨询服务;地理信息加工处理;服装批发;服装辅料批发;数据处理和存储服务;数字动漫制作;游艺及娱乐用品批发;其他文化娱乐用品批发;家用电器批发;五金产品批发;体育用品及器材批发;纺织品、针织品及原料批发;文具用品批发;家具批发;婴儿用品批发;蔬菜批发;水果批发;玩具零售;电子产品零售;箱、包零售;工艺美术品零售;汽车销售;摩托车批发;摩托车零配件批发;摩托车零售;摩托车零配件零售;充值卡销售;小饰物、小礼品零售;电子产品批发;电气设备批发;航空运输设备批发;水上运输设备批发;游艇零售;商品批发贸易（许可审批类商品除外）;商品零售贸易（许可审批类商品除外）;票务服务;纺织品及针织品零售;服装零售;文具用品零售;收集、整理、储存和发布人才供求信息;人才推荐;人才择业咨询指导;人才招聘;人才测评;人才培训;人才资源开发与管理咨询;职业中介服务;职业信息服务;人事代理;劳动保障事务咨询服务;劳动保障事务代理服务;流动人才人事档案及相关的人事行政关系管理;劳务派遣服务;向境外派遣各类劳务人员（不含海员）;对外劳务合作;境外就业中介服务;大学生就业推荐;人才租赁;人才引进;人才信息网络服务,www.yuanyuantv.com,020-82120650,"[""020-82120650"",""18565207668"",""020-82120424"",""29162008""]"
隆发鞋业（惠州）有限公司,广东省,-,91441322782039312K,苏启声,有限责任公司(外国法人独资),皮革、毛皮、羽毛及其制品和制鞋业,2005-11-18,-,6810,博罗县龙溪镇龙庭工业区,ftlcw03@ms8.deanshoes.com,生产、销售：各款鞋类及半成品、鞋配件等。产品在国内外市场销售。对位于龙溪镇宫庭村南亚地段和龙溪镇宫庭村委会地段的自有厂房除自用外部分用于租赁。(依法须经批准的项目，经相关部门批准后方可开展经营活动)〓,-,0752-6298333,"[""0752-6298333""]"
广东宝力电器有限公司,广东省,江门市,91440700739890742W,邝竞安,有限责任公司(中外合资),电气机械和器材制造业,2002-06-25,127.05万美元,6410,江门市新会区会城街道七堡工贸城南区1、2、3、4号,fang@powermax-cn.com,生产经营吊扇、落地扇、高速扇、分马力电机等机电产品以及日用电器、电照明器具、太阳能器具、燃气器具、机电产品注塑成型，产品百分之八十外销。(依法须经批准的项目，经相关部门批准后方可开展经营活动)〓,powermax.jd.com,6688068,"[""6688068""]"
周生生（中国）商业有限公司,广东省,广州市,91440101717863380H,周永成,有限责任公司(台港澳法人独资),批发业,2006-03-08,150000万港元,6087,广州市天河区黄埔大道西100号富力盈泰广场第B幢16层1601-08室,li.feng.jun@chowsangsang.com,服装批发;钟表批发;箱、包批发;钻石饰品批发;宝石饰品批发;玉石饰品批发;水晶首饰批发;工艺品批发;珍珠饰品批发;皮革及皮革制品批发;五金产品批发;佣金代理;黄金制品批发;白银制品批发;铂金制品批发;百货零售（食品零售除外）;日用杂品综合零售;服装零售;箱、包零售;钟表零售;小饰物、小礼品零售;钻石首饰零售;宝石饰品零售;玉石饰品零售;水晶饰品零售;珍珠饰品零售;工艺美术品零售;五金零售;黄金制品零售;白银制品零售;铂金制品零售;市场营销策划服务;钟表维修服务;日用器皿及日用杂货批发;贵金属检测服务;珠宝玉石检测服务;,cneshop.chowsangsang.com,020-38392288,"[""020-38392288"",""38392288""]"
佛山群志光电有限公司,广东省,佛山市,91440605787926826M,林清辉,有限责任公司(外国法人独资),计算机、通信和其他电子设备制造业,2006-04-21,-,9784,佛山市南海区南海科技工业园兴业北路,718592136@qq.com,新型平板显示器件及其零配件、数字电视机及其零配件、相关新型电子元器件及其模具、治工具、自动化设备及其零部件的开发、加工、生产，销售公司自产产品并提供同类产品的维修服务；从事上述产品的同类商品的批发、进出口及相关配套业务（不涉及国营贸易管理商品，涉及配额、许可证管理商品的，按国家有关规定办理申请）。(依法须经批准的项目，经相关部门批准后方可开展经营活动)〓,-,0757-29904055,"[""0757-29904055"",""29904078""]"
广东海信冰箱营销股份有限公司,广东省,佛山市,91440606086807103G,段跃斌,股份有限公司(非上市、自然人投资或控股),零售业,2013-12-23,59.4万人民币,6756,佛山市顺德区容桂街道容港路8号3楼,cencaixia@hisense.com,电冰箱、冷柜、洗衣机、生活电器等家用电器产品的销售及其售后服务、技术服务。,login.taobao.com/member/login.jhtml?from=taobaoindex&f=top&style=&sub=true&redirect_url=%3A%2F%2Fmyseller.taobao.com%2Fseller_admin.htm,0757-28361224,"[""0757-28361224"",""28361224""]"
陆逊梯卡华宏（东莞）眼镜有限公司,广东省,东莞市,914419007417490512,路易吉.弗兰卡维拉,有限责任公司(外国法人独资),仪器仪表制造业,2002-09-19,-,9297,东莞市高埗镇欧邓村,alice.wang@cn.luxottica.com,生产和销售眼镜及其零配件，内设配套电镀车间；眼镜制造设备、模具，并提供相关售后服务；提供眼镜包装服务（不含印刷工序），为关联企业提供商务服务、仓储服务及物流协助服务。(依法须经批准的项目，经相关部门批准后方可开展经营活动)〓,-,0769-88870241,"[""0769-88870241""]"
肇庆市现代筑美家居有限公司,广东省,-,914412006698179606,梁裕尤,有限责任公司(外国法人独资),家具制造业,2007-12-12,3000万美元,5248,肇庆高新技术开发区临江工业园,lizhimin01@modernjj.com,家具、门窗类（木质、钢质、铝合金）的制造、安装及技术开发，装饰材料加工，销售家具、门窗类（木质、钢质、铝合金）、卫浴洁具、厨房设备、装饰材料等家居及配套产品，开发、生产和销售高档水暖器材、幕墙、石材及五金件，自营和代理各类商品及技术的进出口业务，自有产品网上销售，家居装饰装修工程设计及施工。,www.modernjj.com,3103683,"[""3103683"",""0758-3103752""]"
深圳市保安服务有限公司,广东省,深圳市,91440300192190784D,罗国良,有限责任公司（自然人投资或控股的法人独资）,商务服务业,1985-01-21,5000万人民币,6566,深圳市罗湖区南湖路2011号庆安大厦十一层,szba@szbafw.com,安检设备的租赁、检测、维护；安全技术防范工程设计；机房装饰、保安装置和设备安装、保养、维修；计算机硬件集成及软件开发、销售、维护；安防工程咨询（不含限制项目）；工程监理；建筑智能化工程设计、施工、维护及咨询；安防产品研发与销售；汽车租赁（不含融资租赁等金融租赁项目）；物业管理；房屋租赁；代办技防年审。（以上项目涉及资质证的需取得资质证后方可经营）保安服务；劳务派遣；安保报警服务（远程视频报警）；警用装备及器材的购销；承接货币、有价证券、金银珠宝、文物艺术品等贵重物资的押运及守护；承接危化品的押运及守护；承接现金清分、财产保全，银行自助设备清机、加钞、押运、巡检维护、卫生清洁；保安培训；普通货运。（以上项目涉及资质证的需取得资质证后方可经营）,www.szbafw.com,0755-82177907,"[""0755-82177907"",""0755-82177650"",""0755-82217650"",""82295662""]"
东莞山本电子科技有限公司,广东省,东莞市,914419006183697076,高桥俊雄,有限责任公司(外国法人独资),仪器仪表制造业,1994-12-19,20420万港元,7907,东莞市虎门港麻涌新沙工业区,296350754@163.com,生产、销售和加工新型电子元器件（新型机电元件：印刷多层线路板）、电子钟表、小五金件、五金电镀、印刷线路板，并在国内采购生产线路板的原辅材料（涉证涉限除外）出口。(依法须经批准的项目，经相关部门批准后方可开展经营活动)〓,-,0769-88227094,"[""0769-88227094""]"
东莞东聚电子电讯制品有限公司,广东省,东莞市,914419006177619698,张振德,有限责任公司(台港澳与外国投资者合资),计算机、通信和其他电子设备制造业,1995-12-21,6200万美元,6657,东莞市石碣镇新城区三横路刘屋道路段,gmbox@primax.com.cn,生产和销售扫描器、电脑插线等电脑周边配件、插座、注塑产品、五金、塑胶模具、手提式电子游戏机、电子游戏机（不含赌博成分）、空气清新器、空气滤清器、碎纸机、装钉机、裁纸机、除湿机、加湿机、吸尘机、打孔机、幻灯机、电源延长插座、护贝机、收银机、芳香灯、过胶机、电子轨迹球、鼠标器、线路板（包括加值卡、控制卡）、控制器、充电电池、条码输入器、塑胶粒（塑胶料为新料）、电话机用零配件（含电话钳、电话铃、接头线、转接头、连接线、接线盒等）、充电器、电话线、电脑线等线材加工、镭射印表机、载波器、信息终端集成器、多功能事务机、遥控器、键盘、彩色打印机、线路板（包括控制卡、多媒体控制器、电路板、主控制板端零件、电脑多功能附加卡、多媒体适能卡）、音箱、数据机、静电监测器、离子产生器、硬盘连接卡（PC卡）、数码照相机及相关配套件、小变压器、打印控制器、电路板组装件（含电子零件）、数位式电子吉他及其零件、电脑电子产品零配件、电子感应器及其零配件、语音数据资料运输通讯电子产品及其周边设备、数字视频摄像头及其零组件、宽带接入网通信系统设备（信息终端集成器）、新型打印装置（激光扫描打印机）、办公产品、平板电脑、金属制品模具、非金属制品模具、无线POS终端机及有线POS终端机（不含税控收款机等涉限涉证产品）。自有厂房出租服务、技术咨询服务、设立研发机构、研究和开发自产产品；企业管理服务。（以上项目不涉及外商投资准入特别管理措施）。(依法须经批准的项目，经相关部门批准后方可开展经营活动)〓,www.primax.com.cn,0769-82293666,"[""0769-82293666"",""0769-86631652""]"
广州市白马巴士有限公司,广东省,-,91440116745973616R,范水煌,有限责任公司(自然人投资或控股),道路运输业,2003-01-14,-,8717,广州经济技术开发区大观北路68号101房,jumbobus@163.com,投资咨询服务;广告业;企业管理咨询服务;公共电汽车客运;,-,82284589,"[""82284589"",""82297556"",""020-82284589""]"
东莞兴腾鞋材有限公司,广东省,东莞市,91441900781197861H,谢东壁,有限责任公司(外国法人独资),皮革、毛皮、羽毛及其制品和制鞋业,2005-11-02,1942万美元,5031,广东省东莞市大岭山镇厚大路大岭山段348号40号楼,jaoe.cao@stella.com.hk,生产和销售鞋材、鞋底、橡胶制品和塑胶制品、鞋；自有房屋租赁。（以上项目不涉及外商投资准入特别管理措施）(依法须经批准的项目，经相关部门批准后方可开展经营活动)〓,-,0769-38938588,"[""0769-38938588"",""13826945356"",""0769-83058898""]"
明安运动器材（东莞）有限公司,广东省,东莞市,9144190071220962XU,郑锡坤,有限责任公司(外国法人独资),文教、工美、体育和娱乐用品制造业,1998-11-16,3562万港元,5105,东莞市虎门镇龙眼村,silan.yang@adgroup.com.tw,生产和销售高尔夫运动器材用品、复合材料脚踏车零部件、复合材料电子零配件、复合材料电器零配件、自行车、自行车配件、玻璃纤维制品、五金制品；从事运动器材、自行车及其配件的批发及进出口业务（涉限涉证及涉国家宏观调控行业除外，涉及配额许可证管理、专项规定管理的按有关规定办理）。(依法须经批准的项目，经相关部门批准后方可开展经营活动)〓,-,0769-85555321,"[""0769-85555321""]"
广东南方人力资源服务有限公司,广东省,广州市,914401015602084086,李伟鹏,其他有限责任公司,商务服务业,2010-08-05,1100万人民币,6996,广州市越秀区环市东路334号1901-1909房（不可作厂房使用）,401629207@qq.com,职业技能培训（不包括需要取得许可审批方可经营的职业技能培训项目）;人才招聘;人才测评;收集、整理、储存和发布人才供求信息;人才资源开发与管理咨询;人才租赁;人才择业咨询指导;人才信息网络服务;呼叫中心;对外劳务合作;人才推荐;劳务派遣服务;人才培训;电子产品批发;数据处理和存储服务;通信设备零售;档案管理服务;酒店管理;档案管理技术服务;餐饮管理;信息系统集成服务;工程技术咨询服务;企业管理咨询服务;通信系统工程服务;教育咨询服务;计算机网络系统工程服务;受企业委托从事通信网络的维修、维护（不涉及线路管道铺设等工程施工）;信息技术咨询服务;建筑物清洁服务;市场营销策划服务;绿化管理、养护、病虫防治服务;工程项目管理服务;企业管理服务（涉及许可经营项目的除外）;医院管理;家庭服务;工程监理服务;汽车租赁;建筑劳务分包;业务流程外包;装卸搬运;打包、装卸、运输全套服务代理;物流代理服务;仓储代理服务;其他仓储业（不含原油、成品油仓储、燃气仓储、危险品仓储）;道路货物运输代理;通信系统设备制造;通信终端设备制造;通信线路和设备的安装;通信基站设施租赁;为留学人员提供创业、投资项目的信息咨询服务;通信技术研究开发、技术服务;电子、通信与自动控制技术研究、开发;会议及展览服务;仓储咨询服务;公司礼仪服务;以服务外包方式从事职能管理服务和项目管理服务以及人力资源服务和管理;通信交换设备专业修理;人力资源外包;大型活动组织策划服务（大型活动指晚会、运动会、庆典、艺术和模特大赛、艺术节、电影节及公益演出、展览等，需专项审批的活动应在取得审批后方可经营）;汽车销售;电动机销售;通用机械设备销售;电气机械设备销售;汽车充电模块销售;电工金具的销售;电力销售代理;机器人销售;智能机器系统销售;机器人系统销售;智能机器销售;二手车销售;教学用模型及教具制造;教学专用仪器制造;教学设备的研究开发;电工器材的批发;电工器材零售;智能机器系统技术服务;,www.southhr.cn,020-66353593,"[""020-66353593"",""66353593"",""020-66353598""]"
协顺灯饰（惠州）有限公司,广东省,惠州市,91441300707771415C,蔡武雄,有限责任公司(外国法人独资),文教、工美、体育和娱乐用品制造业,1998-08-25,-,5781,惠州市惠州大道小金口段305号,ketiany0901@163.com,生产和经营圣诞树、圣诞灯串、家庭照明产品及其它塑料装饰工艺品（产品１００％外销）。(依法须经批准的项目，经相关部门批准后方可开展经营活动)〓,-,0752-2297756,"[""0752-2297756"",""2297756""]"
佛山中原地产代理有限公司,广东省,佛山市,91440600756482513A,李耀智,有限责任公司(台港澳法人独资),房地产业,2003-12-12,880万港元,7498,佛山市禅城区城门头西路1号1606房,835051941@qq.com,物业和房地产中介代理服务及物业投资顾问、咨询服务。(依法须经批准的项目，经相关部门批准后方可开展经营活动)〓,www.centaline.com.cn,0757-82625583,"[""0757-82625583"",""82625583""]"
珠海市南方人力资源服务有限公司,广东省,珠海市,91440400759202994H,卢文捷,有限责任公司(自然人投资或控股),其他服务业,2004-02-12,1500万,6172,珠海市前山金鸡路122号人力资源大厦1-3层（不含档案库）,hrb@zh-hr.com,劳务派遣、人才派遣、人才交流、劳务交流、人才劳务信息服务、档案挂靠、代办社会保险、用工手续等劳动保障事务代理、互联网信息服务业务、以服务外包方式从事职能管理服务和项目管理服务；以承接服务方式从事项目管理、后勤保洁服务、企业管理、咨询服务；为企业提供业务、生产、后勤服务外包；广告宣传、广告策划、广告制作。(依法须经批准的项目，经相关部门批准后方可开展经营活动)〓,www.zh-hr.com,暂无信息,-
广东三元麦当劳食品有限公司,广东省,广州市,914400006174015768,张家茵,有限责任公司(中外合资),餐饮业,1992-08-21,938.5万美元,5162,广东省广州市荔湾区康王中路486号和业广场2301、2401、2402、2403、2404号,liangya.huang@mcd.bigmac.com.cn,制造、生产、加工、经营和销售各种食品、饮料和餐饮产品；提供餐饮服务，提供餐饮外送服务；经营和出售礼品、纪念品、玩具、预付卡、优惠卡；图书、报纸、期刊、电子出版物的批发和零售（仅限分支机构经营）；前述经营项目含网络经营；以特许经营方式从事商业活动；提供经营管理、营销、市场、生产等咨询服务；出租或转租全部或部分现有营业场地（涉及行业许可、专项管理的按有关规定办理）。(依法须经批准的项目，经相关部门批准后方可开展经营活动)〓,www.mcdonalds.com.cn,020-83635008,"[""020-83635008""]"
中海物业管理广州有限公司,广东省,广州市,914401012312316589,刘忠,有限责任公司(法人独资),房地产业,1995-08-28,1580万人民币,6157,广州市越秀区先烈中路69号2821房,暂无信息,运动场馆服务（游泳馆除外）;婚姻服务;道路货物运输代理;礼品鲜花零售;五金零售;通用设备修理;旅客票务代理;电线、电缆批发;开关、插座、接线板、电线电缆、绝缘材料零售;建筑物清洁服务;园林绿化工程服务;百货零售（食品零售除外）;家庭服务;停车场经营;灯具、装饰物品批发;防虫灭鼠服务;场地租赁（不含仓储）;生活清洗、消毒服务;灯具零售;台球服务;五金产品批发;物业管理;房地产中介服务;室内装饰设计服务;游泳馆;理发服务;美容服务;,-,020-87325989,"[""020-87325989"",""87325989""]"
中山立辉金属制品有限公司,广东省,中山市,91442000618130683W,林志远,有限责任公司(外国法人独资),金属制品业,1995-06-02,5886万港元,8890,广东省中山市五桂山镇龙塘大山脚169号,lihui@asber.com,生产经营餐桌、餐椅、厨房、卫浴等家用钢铁器具及其相关制品（包括电镀铁线制品、烤漆铁线制品、塑料金属制品、陶瓷金属制品、木器金属制品等），金属线材制品，产品境内外销售。(依法须经批准的项目，经相关部门批准后方可开展经营活动)〓,-,28179000,"[""28179000"",""28179042""]"
番禺镀化研机械制造有限公司,广东省,广州市,91440115708214709A,陈伟聪,有限责任公司(台港澳法人独资),通用设备制造业,1997-08-28,-,5572,广州市南沙区横沥镇番中公路横沥段2号(横沥所),704485789@qq.com,其他金属加工机械制造;汽车零部件及配件制造（不含汽车发动机制造）;日用塑料制品制造;塑料零件制造;金属表面处理及热处理加工;电镀设备及装置制造;,www.jma.com.hk,020-84962611,"[""020-84962611"",""84962611""]"
广州王老吉大健康企业发展有限公司,广东省,广州市,91440101340089427A,徐文流,有限责任公司(法人独资),酒、饮料和精制茶制造业,2015-04-20,1000万人民币,9139,广州市南沙区双山大道3号106（不可作厂房使用）,luojiedi@wljhealth.com,化妆品及卫生用品批发;化妆品及卫生用品零售;会议及展览服务;非许可类医疗器械经营;商品信息咨询服务;收藏品零售（国家专营专控的除外）;小饰物、小礼品零售;货物进出口（专营专控商品除外）;技术进出口;商品批发贸易（许可审批类商品除外）;商品零售贸易（许可审批类商品除外）;茶饮料及其他饮料制造;固体饮料制造;含乳饮料和植物蛋白饮料制造;果菜汁及果菜汁饮料制造;瓶（罐）装饮用水制造;碳酸饮料制造;精制茶加工;非酒精饮料、茶叶批发;非酒精饮料及茶叶零售;糕点、面包制造（不含现场制售）;糕点、糖果及糖批发;糖果、巧克力制造;蜜饯制作;米、面制品制造;乳制品制造;乳制品批发;预包装食品批发;预包装食品零售;饼干及其他焙烤食品制造（不含现场制售）;方便面及其他方便食品制造;蔬菜、水果罐头制造;其他罐头食品制造;保健食品制造;豆制品制造;食用植物油加工;,wljhealth.com/index.html,020-66282828,"[""020-66282828"",""18126893185"",""18126893815"",""020-66282812""]"
怡富万电业（惠州）有限公司,广东省,-,914413220845170497,谢国雄,有限责任公司(台港澳法人独资),橡胶和塑料制品业,2013-12-20,16500万人民币,9333,博罗县龙溪镇小蓬岗村怡富万大道2号,yunholy@everfull.com.cn,生产、加工、销售：PVC塑料粒、铜线、电源线、电线、电子线及其相关产品（不含电镀工序）；管理自有物业。产品在国内外市场销售。（以上项目不涉及外商投资准入特别管理措施）(依法须经批准的项目，经相关部门批准后方可开展经营活动)〓,www.linetek.com.cn,0752-6509988,"[""0752-6509988"",""13620221355"",""0755-28026679"",""13560788993""]"
广州慧牧生物科技有限公司,广东省,广州市,91440101MA59GXN91J,陈鹏,其他有限责任公司,科技推广和应用服务业,2016-12-13,54万人民币,5435,广州市增城区新塘镇东华工业村首层,暂无信息,生物技术咨询、交流服务;生物技术开发服务;饲料批发;饲料零售;饲料添加剂批发;饲料添加剂零售;畜牧业科学研究服务;(依法须经批准的项目，经相关部门批准后方可开展经营活动)〓,-,48411515,"[""48411515""]"
广东汉普人力资源有限公司,广东省,中山市,9144200079620311XA,宋润发,有限责任公司(自然人投资或控股),商务服务业,2006-11-16,1000万人民币,6648,中山市东区博爱六路80号中山嘉明电力有限公司生产控制大楼7楼之1卡,hope9000@126.com,人力资源服务机构；劳务派遣；国内劳务分包；企业管理软件开发及销售；承接计算机网络工程；承接园林绿化工程；承接船舶修造工程（不含渔业船舶修造）；承接钢结构安装工程；承接机电安装工程；销售：电子产品、船舶设备及配件、劳保用品；承接通讯设备及网络维护工作；计算机网络、软件技术开发、技术服务；清洁服务；物业管理；餐饮管理；增值电信业务、专用电信网运营；档案整理和数据处理服务；仓储服务、会议服务、配送服务、装卸搬运服务、礼仪服务、物流信息咨询；家政服务；承接市政道路建筑工程；以上不涉及前置许可经营范围的业务外包服务（以上项目不含互联网信息和上网服务，且法律、法规禁止的项目除外；法律、法规限制的项目须取得相关许可方可经营）；（依法须经批准的项目，经相关部门批准后方可开展经营活动。）(依法须经批准的项目，经相关部门批准后方可开展经营活动)〓,www.hphrs.com,0760-88232411,"[""0760-88232411"",""87880775"",""0760-87880775""]"
广州聚瑞企业管理咨询有限公司,广东省,广州市,91440114685217586P,赵欣,有限责任公司(自然人投资或控股),商务服务业,2009-02-27,200万人民币,6914,广州市花都区新华街保利城北街20号17号铺（仅限办公用途）,minxian061@163.com,装卸搬运;企业管理服务（涉及许可经营项目的除外）;单位后勤管理服务（涉及许可经营的项目除外）;翻译服务;劳务派遣服务;,www.sk166.com,18620258625,"[""18620258625"",""13430297317"",""28009018"",""020-28009018""]"
广州市华好日用品有限公司,广东省,广州市,914401060658306898,欧阳书军,有限责任公司(自然人投资或控股),批发业,2013-04-17,500万人民币,8743,广州市天河区天河路242号2007房（仅限办公用途）（不可作厂房使用),xiaoli@cthr.com.cn,日用杂品综合零售;市场营销策划服务;企业管理咨询服务;其他日用化学产品制造（监控化学品、危险化学品除外）;清扫、清洗日用品零售;日用化工专用设备制造;日用杂品生产专用设备制造;加工纸制造;化工产品批发（危险化学品除外）;化工产品零售（危险化学品除外）;化妆品及卫生用品批发;化妆品及卫生用品零售;化妆品制造;厨房用具及日用杂品零售;包装服务;机制纸及纸板制造;手工纸制造;其他纸制品制造;肥皂及合成洗涤剂制造;口腔清洁用品制造;文具制造;文具用品批发;文具用品零售;日用家电设备零售;人力资源外包;业务流程外包;邮政代办业务;装卸搬运;商品批发贸易（许可审批类商品除外）;商品零售贸易（许可审批类商品除外）;打包、装卸、运输全套服务代理;仓储咨询服务;仓储代理服务;清洁用品批发;企业管理服务（涉及许可经营项目的除外）;接受委托从事劳务外包服务;以服务外包方式从事职能管理服务和项目管理服务以及人力资源服务和管理;企业总部管理;单位后勤管理服务（涉及许可经营的项目除外）;市场调研服务;为留学人员提供创业、投资项目的信息咨询服务;商品信息咨询服务;,-,38395626,"[""38395626"",""020-38395626""]"
深圳易薪人力资源顾问有限公司,广东省,深圳市,91440300MA5EF01H6J,张洋,有限责任公司（自然人投资或控股的法人独资）,商务服务业,2017-03-31,200万人民币,8996,深圳市福田区沙头街道深南西路车公庙工业区天安数码时代大厦主楼603,zhiyong.tan@chinatalentgroup.com,经济信息咨询、企业管理咨询、财务咨询；通信设备的技术开发；从事广告业务；会议服务；展览展示策划；国内贸易；健康养生管理咨询（不含医疗行为）。（法律、行政法规、国务院决定禁止的项目除外，限制的项目须取得许可后方可经营）劳务派遣；人才资源开发与管理咨询；人才信息咨询。,-,0755-88285633,"[""0755-88285633""]"
珠海林朗办公家具有限公司,广东省,珠海市,91440400789418032G,肖雅,有限责任公司(自然人独资),零售业,2006-05-26,200万,7812,珠海市担杆镇伶宾路5号116之四室,暂无信息,办公家具的批发、零售。(依法须经批准的项目，经相关部门批准后方可开展经营活动)〓,-,暂无信息,-
深圳市皇马劳务派遣有限公司,广东省,深圳市,914403006911657008,曹荣柱,有限责任公司,商务服务业,2009-06-23,200万人民币,6394,深圳市龙岗区龙岗街道南联社区龙岗大道6105号三楼,2849506343@qq.com,一般经营项目是：劳务派遣、企业管理咨询、投资策划、礼仪策划（以上法律、行政法规或者国务院决定禁止和规定在登记前须经批准的项目除外）。，许可经营项目是：,-,13302952308,"[""13302952308"",""0755-84848808""]"
东莞市宏远新科实业投资有限公司长安分公司,广东省,东莞市,91441900592145560R,孙旺娣,其他有限责任公司分公司,商务服务业,2012-01-17,-,5826,东莞市长安镇上沙社区长南路东莞安力科技园建造有限公司综合楼四楼,lqt@winnersae.com,实业投资；自有物业出租、管理；销售：电子产品、日用品、建筑材料、通用机械设备、机电设备；商务信息咨询；计算机软硬件开发及技术服务；机器设备租赁、设备维修及保养服务；人力资源中介服务、劳务外包、劳务派遣。(依法须经批准的项目，经相关部门批准后方可开展经营活动)〓,-,85300628,"[""85300628""]"
广东省广播电视网络股份有限公司中山分公司,广东省,中山市,91442000559164575K,高巍巍,其他股份有限公司分公司(非上市),广播、电视、电影和影视录音制作业,2010-07-22,-,6207,中山市东区东裕路93号尚峰金融商务中心8座11层1卡,暂无信息,在隶属公司经营范围内开展相关业务。(依法须经批准的项目，经相关部门批准后方可开展经营活动)〓,www.gcable.com.cn,0760-89883902,"[""0760-89883902""]"
深圳市乐有家房产交易有限公司,广东省,深圳市,914403006837904509,杜艳花,有限责任公司,房地产业,2009-02-01,20000万人民币,5566,深圳市福田区园岭街道华林社区八卦四路52号安吉尔大厦1603-1612,1918868888@qq.com,房地产经纪；信息咨询（不含限制项目）；房地产销售策划。,www.leyoujia.com,0755-25884486,"[""0755-25884486""]"
珠海市天维广告有限公司,广东省,珠海市,91440400315136113U,张小琼,有限责任公司(自然人独资),商务服务业,2014-09-24,-,9672,珠海市香洲翠前北路138号8栋504房之一,暂无信息,室内外广告设计制作，室内装修设计（凭资质证开业）装饰材料；劳保用品办公用品，五金交电批发零售。(依法须经批准的项目，经相关部门批准后方可开展经营活动)〓,www.123baojia.com,暂无信息,-
一汽—大众汽车有限公司佛山分公司,广东省,佛山市,914406055797407011,刘亦功,分公司,汽车制造业,2011-07-22,-,5746,广东省佛山市南海区狮山镇官窑虹岭一路1号,dongmei.lv@faw-vw.com,生产德国大众、奥迪ABCD级系列轿车、奥迪V6系列发动机及其总成、零部件，并销售自产产品、提供售后服务。(依法须经批准的项目，经相关部门批准后方可开展经营活动)〓,www.faw-vw.com,0757-85831753,"[""0757-85831753"",""85861753"",""0757-85861753""]"
上海保利物业酒店管理集团有限公司广州分公司,广东省,广州市,914401017281907839,张军,有限责任公司分公司,房地产业,2001-03-27,-,6401,广州市天河区天河北路233号1109房（仅限办公用途）,暂无信息,开关、插座、接线板、电线电缆、绝缘材料零售;陶瓷装饰材料零售;电气设备批发;百货零售（食品零售除外）;木质装饰材料零售;金属装饰材料零售;会议及展览服务;建筑物清洁服务;室内装饰、设计;市场营销策划服务;装饰石材零售;房地产咨询服务;摄影服务;电气设备零售;建材、装饰材料批发;电脑打字、录入、校对、打印服务;电气机械设备销售;五金零售;酒店管理;通用机械设备销售;五金产品批发;餐饮管理;物业管理;游泳馆;中餐服务;西餐服务,www.polygd.com,87520789,"[""87520789"",""020-87520789""]"
江西龙艺企业管理服务有限公司深圳分公司,广东省,深圳市,91440300349716976J,张红平,有限责任公司分公司,商务服务业,2015-08-10,-,6851,深圳市宝安区西乡街道富华社区新城广场3层2211-D316,15818635710@163.com,一般经营项目是：为企业提供鉴证咨询服务、投资咨询（不含限制项目）、企业管理咨询（不含限制项目）；信息技术服务；会议展览服务；企业形象设计（以上法律、行政法规、国务院决定禁止的项目除外，限制的项目须取得许可后方可经营）。，许可经营项目是：劳务派遣，人力资源服务。,-,15818635710,"[""15818635710"",""021-69711000"",""18620308735""]"
上海明酷营销服务有限公司从化分公司,广东省,广州市,9144010130439183XC,孙广军,有限责任公司分公司(自然人投资或控股),商务服务业,2014-06-04,-,7461,广州市从化街口街青云路107号二楼215单元（仅限办公用途）,yiqin.mo@mecoolchina.cn,劳务派遣服务;市场营销策划服务;市场调研服务;企业形象策划服务;投资咨询服务;工艺品批发;,-,021-62278811,"[""021-62278811"",""62278811"",""020-38370256""]"
宁波才烁人力资源服务有限公司深圳分公司,广东省,深圳市,91440300MA5ELQ4L1B,柴媛,其他有限责任公司分公司,商务服务业,2017-07-04,-,6233,深圳市龙岗区龙城街道爱联社区龙翔大道缤纷世纪公寓A栋4H,christy.chai@cdpgroupltd.com,日用品、文教用品、服装、运动护具、五金交电、建筑装潢材料、金属材料、电子设备、针纺织品、化工原料及产品（不含危险化学品）的批发、零售；健康管理咨询，健身服务，翻译服务，企业营销策划和市场推广、市场调查，投资咨询，法律咨询服务(不得以律师名义从事法律服务业务；不得以谋取经济利益从事诉讼和辩护业务)；公关策划，会务服务；国内陆路货运代理，国际陆路货运代理，业务流程外包（上述经营范围不含国家法律法规规定禁止、限制和许可经营项目）。（依法需经批准的项目，经相关部门批准后方可开展经营活动）普通货物仓储。,-,13651469871,"[""13651469871"",""0755-84514431""]"
中国电信集团有限公司广州分公司,广东省,广州市,91440000725074832B,李勇平,有限责任公司分公司(国有独资),电信、广播电视和卫星传输服务,2000-09-01,-,5241,广州市天河区体育东路128、130号,gzqgbgw.gd@chinatelecom.cn,受集团公司委托经营由国家投资形成的国有资产和国有股权；经营与通信及信息业务相关的技术开发、技术服务、设计施工、设备生产与销售、信息咨询。(依法须经批准的项目，经相关部门批准后方可开展经营活动)〓,-,020-38883322,"[""020-38883322"",""020-38854483""]"
德佑房地产经纪有限公司深圳分公司,广东省,深圳市,91440300MA5DDRA14H,兰馨,有限责任公司分公司,房地产业,2016-06-01,-,8212,深圳市南山区南山街道登良社区东滨路与南光路交汇处永新时代广场2号楼6层6097室,wangqin015@ke.com,房地产经纪，商务信息咨询，房地产咨询、策划，设计、制作各类广告，市场信息咨询与调查（不得从事社会调查、社会调研、民意调查、民意测验），票务代理，会务服务，翻译服务，投资信息咨询（除经纪），企业管理咨询，办公用品的批发、零售，计算机专业技术领域内的技术服务、技术咨询，技术开发。物业管理，建筑装饰装修建设工程专业施工,-,15900578856,"[""15900578856"",""0755-86548584""]"
中国电信股份有限公司广州分公司,广东省,广州市,91440000748017099P,李勇平,股份有限公司分公司,电信、广播电视和卫星传输服务,2003-03-10,-,5241,广州市天河区体育东路128号,gzqgbgw.gd@chinatelecom.cn,在本市行政区域内经营基础电信业务（在基础电信业务许可证有效期内经营）、增值电信业务（在增值电信业务许可证有效期内经营）；经营与通信及信息业务相关的系统集成、技术开发、技术服务、技术培训、技术咨询、信息咨询、设备及计算机软硬件的开发、销售、安装和设计与施工；房屋租赁，通信设施租赁；安全技术防范系统的设计、施工和维修；广告业务。(依法须经批准的项目，经相关部门批准后方可开展经营活动)〓,www.mini189.cn,020-38883322,"[""020-38883322"",""020-38854483""]"
广深铁路股份有限公司广州机务段,广东省,广州市,91440101X184644602,刘锐,其他股份有限公司分公司(上市),商务服务业,2014-01-01,-,6030,广州市越秀区环市西路广州站1号,13922166058@139.com,联系总公司业务;(依法须经批准的项目，经相关部门批准后方可开展经营活动)〓,-,61357913,"[""61357913"",""020-61357913"",""61358603""]"
中南国际人力资源（深圳）有限公司东莞分公司,广东省,-,91441900572414807F,张文涛,其他有限责任公司分公司,商务服务业,2011-04-19,-,5342,东莞松山湖高新技术产业开发区北部工业城科苑公寓6102、6103号,hr@znhr.com,劳务派遣；礼仪策划。(依法须经批准的项目，经相关部门批准后方可开展经营活动)〓,-,0769-23833944,"[""0769-23833944"",""0769-33202122"",""0755-84812439"",""0769-23079484"",""0755-84813180""]"
中远海运船员管理有限公司广州分公司,广东省,广州市,91440101MA5ANMD03K,林国旋,有限责任公司分公司(国有独资),水上运输业,2017-12-29,-,6306,广州市南沙区万顷沙镇粤海大道九涌段出口加工区管委会大楼302D房（仅限办公用途）,暂无信息,航运经纪;国内水运船舶代理;人力资源外包;代理海船船员办理申请培训、考试、申领证书等有关手续（具体经营项目以《船员服务机构许可证》为准）;代理船员用人单位管理海船船员事务（具体经营项目以《船员服务机构许可证》为准）;为国内航行海船提供配员等相关活动（具体经营项目以《船员服务机构许可证》为准）;为外国籍或港澳台地区籍海船提供配员（具体经营项目以《海员外派机构资质证书》为准）;代理外派海员办理申请培训、考试及申领相关证书（具体经营项目以《海员外派机构资质证书》为准）;国际船舶管理;船舶补给供应服务;国内船舶管理;国际海运船舶代理;对外劳务合作;,-,84102912,"[""84102912"",""020-84102912""]"
广州中滔绿由环保科技有限公司,广东省,广州市,91440115725642756T,陆小安,有限责任公司(台港澳法人独资),生态保护和环境治理业,2000-11-29,8187万人民币,5532,广州市南沙区横沥镇合兴路56号（横沥所）,zjb@py777.com,土壤修复;能源技术研究、技术开发服务;安全生产技术服务;油罐清洗服务;环保技术推广服务;可再生能源领域技术咨询、技术服务;资源再生及综合利用技术、企业生产排放物的再利用技术开发及其应用;污水处理及其再生利用;生活清洗、消毒服务;水污染治理;收集、贮存、处理、处置生活污泥;城市生活垃圾经营性清扫、收集、运输服务;化工产品废弃物治理;道路货物运输;矿物油废弃物治理;再生物资回收与批发;固体废物治理;医疗及药物废弃物治理;危险废物治理;废旧机械设备治理;金属矿物质废弃物治理;非金属矿物质废弃物治理;收集、贮存、处理（港口、船舶）含油废水;有毒性废弃物治理;危险化学品运输;腐蚀性废弃物治理;建筑施工废弃物治理;,www.py777.com,84968082,"[""84968082"",""020-84968889"",""84968889""]"
